{"type": "FeatureCollection", "features": [ {"type": "Feature", "properties": {"norad_id": 31430, "name": "FENGYUN 1C DEB", "group": "fengyun-1c-debris", "lat": 63.4058121554732, "lon": -113.77457911596733, "alt_km": 793.1241623076576, "timestamp": "2025-12-11T07:02:24.012753+00:00", "meta": {"OBJECT_NAME": "FENGYUN 1C DEB", "OBJECT_ID": "1999-025BTS", "EPOCH": "2025-12-10T16:06:15.201792", "MEAN_MOTION": 14.25589315, "ECCENTRICITY": 0.002697, "INCLINATION": 98.7435, "RA_OF_ASC_NODE": 47.7022, "ARG_OF_PERICENTER": 48.5066, "MEAN_ANOMALY": 114.3332, "EPHEMERIS_TYPE": 0, "CLASSIFICATION_TYPE": "U", "NORAD_CAT_ID": 31430, "ELEMENT_SET_NO": 999, "REV_AT_EPOCH": 96088, "BSTAR": 0.001406, "MEAN_MOTION_DOT": 3.298e-05, "MEAN_MOTION_DDOT": 0}, "tle": {"line1": "1 31430U 99025BTS 25344.67100928  .00003298  00000+0  14060-2 0  9991", "line2": "2 31430  98.7435  47.7022 0026970  48.5066 114.3332 14.25589315960885"}}, "geometry": {"type": "Point", "coordinates": [-113.77457911596733, 63.4058121554732]}}, {"type": "Feature", "properties": {"norad_id": 31431, "name": "FENGYUN 1C DEB", "group": "fengyun-1c-debris", "lat": 54.839811432401255, "lon": 65.87125037366967, "alt_km": 789.9926779550105, "timestamp": "2025-12-11T07:02:24.012763+00:00", "meta": {"OBJECT_NAME": "FENGYUN 1C DEB", "OBJECT_ID": "1999-025BTT", "EPOCH": "2025-12-07T15:10:24.373056", "MEAN_MOTION": 14.03044754, "ECCENTRICITY": 0.01330657, "INCLINATION": 98.5386, "RA_OF_ASC_NODE": 230.1202, "ARG_OF_PERICENTER": 109.6865, "MEAN_ANOMALY": 251.8715, "EPHEMERIS_TYPE": 0, "CLASSIFICATION_TYPE": "U", "NORAD_CAT_ID": 31431, "ELEMENT_SET_NO": 999, "REV_AT_EPOCH": 94460, "BSTAR": 0.0022798155, "MEAN_MOTION_DOT": 3.793e-05, "MEAN_MOTION_DDOT": 0}, "tle": {"line1": "1 31431U 99025BTT 25341.63222654  .00003793  00000+0  22798-2 0  9993", "line2": "2 31431  98.5386 230.1202 0133065 109.6865 251.8715 14.03044754944600"}}, "geometry": {"type": "Point", "coordinates": [65.87125037366967, 54.839811432401255]}}, {"type": "Feature", "properties": {"norad_id": 31433, "name": "FENGYUN 1C DEB", "group": "fengyun-1c-debris", "lat": -65.30802445460122, "lon": -92.40889931401577, "alt_km": 826.3339716146338, "timestamp": "2025-12-11T07:02:24.012774+00:00", "meta": {"OBJECT_NAME": "FENGYUN 1C DEB", "OBJECT_ID": "1999-025BTV", "EPOCH": "2025-12-10T05:06:03.290112", "MEAN_MOTION": 14.25379283, "ECCENTRICITY": 0.0100275, "INCLINATION": 98.4097, "RA_OF_ASC_NODE": 247.7857, "ARG_OF_PERICENTER": 36.652, "MEAN_ANOMALY": 115.0039, "EPHEMERIS_TYPE": 0, "CLASSIFICATION_TYPE": "U", "NORAD_CAT_ID": 31433, "ELEMENT_SET_NO": 999, "REV_AT_EPOCH": 95516, "BSTAR": 0.0037305, "MEAN_MOTION_DOT": 9.24e-05, "MEAN_MOTION_DDOT": 0}, "tle": {"line1": "1 31433U 99025BTV 25344.21253808  .00009240  00000+0  37305-2 0  9990", "line2": "2 31433  98.4097 247.7857 0100275  36.6520 115.0039 14.25379283955169"}}, "geometry": {"type": "Point", "coordinates": [-92.40889931401577, -65.30802445460122]}}, {"type": "Feature", "properties": {"norad_id": 31435, "name": "FENGYUN 1C DEB", "group": "fengyun-1c-debris", "lat": -46.01882356356181, "lon": -32.4838794678963, "alt_km": 642.3632872615835, "timestamp": "2025-12-11T07:02:24.012784+00:00", "meta": {"OBJECT_NAME": "FENGYUN 1C DEB", "OBJECT_ID": "1999-025BTX", "EPOCH": "2025-12-10T06:52:24.040704", "MEAN_MOTION": 14.53426627, "ECCENTRICITY": 0.0148912, "INCLINATION": 99.0366, "RA_OF_ASC_NODE": 155.9224, "ARG_OF_PERICENTER": 187.411, "MEAN_ANOMALY": 172.4883, "EPHEMERIS_TYPE": 0, "CLASSIFICATION_TYPE": "U", "NORAD_CAT_ID": 31435, "ELEMENT_SET_NO": 999, "REV_AT_EPOCH": 98337, "BSTAR": 0.00045384, "MEAN_MOTION_DOT": 2.128e-05, "MEAN_MOTION_DDOT": 0}, "tle": {"line1": "1 31435U 99025BTX 25344.28638936  .00002128  00000+0  45384-3 0  9993", "line2": "2 31435  99.0366 155.9224 0148912 187.4110 172.4883 14.53426627983379"}}, "geometry": {"type": "Point", "coordinates": [-32.4838794678963, -46.01882356356181]}}, {"type": "Feature", "properties": {"norad_id": 31436, "name": "FENGYUN 1C DEB", "group": "fengyun-1c-debris", "lat": -28.851558230954893, "lon": -157.00440908457927, "alt_km": 589.6769645326685, "timestamp": "2025-12-11T07:02:24.012794+00:00", "meta": {"OBJECT_NAME": "FENGYUN 1C DEB", "OBJECT_ID": "1999-025BTY", "EPOCH": "2025-12-08T13:28:51.661920", "MEAN_MOTION": 14.93022785, "ECCENTRICITY": 0.0044316, "INCLINATION": 98.882, "RA_OF_ASC_NODE": 194.9716, "ARG_OF_PERICENTER": 256.2521, "MEAN_ANOMALY": 159.099, "EPHEMERIS_TYPE": 0, "CLASSIFICATION_TYPE": "U", "NORAD_CAT_ID": 31436, "ELEMENT_SET_NO": 999, "REV_AT_EPOCH": 96814, "BSTAR": 0.005826, "MEAN_MOTION_DOT": 0.00062201, "MEAN_MOTION_DDOT": 0}, "tle": {"line1": "1 31436U 99025BTY 25342.56170905  .00062201  00000+0  58260-2 0  9994", "line2": "2 31436  98.8820 194.9716 0044316 256.2521 159.0990 14.93022785968144"}}, "geometry": {"type": "Point", "coordinates": [-157.00440908457927, -28.851558230954893]}}, {"type": "Feature", "properties": {"norad_id": 31437, "name": "FENGYUN 1C DEB", "group": "fengyun-1c-debris", "lat": 65.37523476223433, "lon": -93.79894941365872, "alt_km": 752.0609581050585, "timestamp": "2025-12-11T07:02:24.012804+00:00", "meta": {"OBJECT_NAME": "FENGYUN 1C DEB", "OBJECT_ID": "1999-025BTZ", "EPOCH": "2025-12-09T16:13:35.437440", "MEAN_MOTION": 14.42435333, "ECCENTRICITY": 0.00152593, "INCLINATION": 98.8621, "RA_OF_ASC_NODE": 64.6212, "ARG_OF_PERICENTER": 256.234, "MEAN_ANOMALY": 103.715, "EPHEMERIS_TYPE": 0, "CLASSIFICATION_TYPE": "U", "NORAD_CAT_ID": 31437, "ELEMENT_SET_NO": 999, "REV_AT_EPOCH": 96466, "BSTAR": 0.0034638241, "MEAN_MOTION_DOT": 0.00011452, "MEAN_MOTION_DDOT": 0}, "tle": {"line1": "1 31437U 99025BTZ 25343.67610460  .00011452  00000+0  34638-2 0  9998", "line2": "2 31437  98.8621  64.6212 0015259 256.2340 103.7150 14.42435333964669"}}, "geometry": {"type": "Point", "coordinates": [-93.79894941365872, 65.37523476223433]}}, {"type": "Feature", "properties": {"norad_id": 31439, "name": "FENGYUN 1C DEB", "group": "fengyun-1c-debris", "lat": 36.005370685003626, "lon": 177.91432376956246, "alt_km": 813.5134593224157, "timestamp": "2025-12-11T07:02:24.012814+00:00", "meta": {"OBJECT_NAME": "FENGYUN 1C DEB", "OBJECT_ID": "1999-025BUB", "EPOCH": "2025-12-10T19:09:36.745344", "MEAN_MOTION": 13.95574689, "ECCENTRICITY": 0.01378025, "INCLINATION": 98.917, "RA_OF_ASC_NODE": 350.8843, "ARG_OF_PERICENTER": 167.128, "MEAN_ANOMALY": 11.3505, "EPHEMERIS_TYPE": 0, "CLASSIFICATION_TYPE": "U", "NORAD_CAT_ID": 31439, "ELEMENT_SET_NO": 999, "REV_AT_EPOCH": 63205, "BSTAR": 0.00080241804, "MEAN_MOTION_DOT": 1.139e-05, "MEAN_MOTION_DDOT": 0}, "tle": {"line1": "1 31439U 99025BUB 25344.79834196  .00001139  00000+0  80242-3 0  9992", "line2": "2 31439  98.9170 350.8843 0137802 167.1280  11.3505 13.95574689632051"}}, "geometry": {"type": "Point", "coordinates": [177.91432376956246, 36.005370685003626]}}, {"type": "Feature", "properties": {"norad_id": 31440, "name": "FENGYUN 1C DEB", "group": "fengyun-1c-debris", "lat": -49.8282711471858, "lon": -117.23665916631467, "alt_km": 787.969110278389, "timestamp": "2025-12-11T07:02:24.012824+00:00", "meta": {"OBJECT_NAME": "FENGYUN 1C DEB", "OBJECT_ID": "1999-025BUC", "EPOCH": "2025-12-10T04:53:44.091456", "MEAN_MOTION": 14.36653105, "ECCENTRICITY": 0.00366239, "INCLINATION": 98.7454, "RA_OF_ASC_NODE": 72.1632, "ARG_OF_PERICENTER": 350.2386, "MEAN_ANOMALY": 9.8084, "EPHEMERIS_TYPE": 0, "CLASSIFICATION_TYPE": "U", "NORAD_CAT_ID": 31440, "ELEMENT_SET_NO": 999, "REV_AT_EPOCH": 96289, "BSTAR": 0.0026511584, "MEAN_MOTION_DOT": 7.827e-05, "MEAN_MOTION_DDOT": 0}, "tle": {"line1": "1 31440U 99025BUC 25344.20398254  .00007827  00000+0  26512-2 0  9999", "line2": "2 31440  98.7454  72.1632 0036623 350.2386   9.8084 14.36653105962896"}}, "geometry": {"type": "Point", "coordinates": [-117.23665916631467, -49.8282711471858]}}, {"type": "Feature", "properties": {"norad_id": 31441, "name": "FENGYUN 1C DEB", "group": "fengyun-1c-debris", "lat": 26.68285707533255, "lon": -156.84265077110453, "alt_km": 593.9392387301586, "timestamp": "2025-12-11T07:02:24.012834+00:00", "meta": {"OBJECT_NAME": "FENGYUN 1C DEB", "OBJECT_ID": "1999-025BUD", "EPOCH": "2025-12-07T08:28:41.429856", "MEAN_MOTION": 14.7453624, "ECCENTRICITY": 0.01049906, "INCLINATION": 99.3118, "RA_OF_ASC_NODE": 203.3613, "ARG_OF_PERICENTER": 352.0587, "MEAN_ANOMALY": 7.8951, "EPHEMERIS_TYPE": 0, "CLASSIFICATION_TYPE": "U", "NORAD_CAT_ID": 31441, "ELEMENT_SET_NO": 999, "REV_AT_EPOCH": 64011, "BSTAR": 0.0080507132, "MEAN_MOTION_DOT": 0.0005895, "MEAN_MOTION_DDOT": 0}, "tle": {"line1": "1 31441U 99025BUD 25341.35325729  .00058950  00000+0  80507-2 0  9997", "line2": "2 31441  99.3118 203.3613 0104990 352.0587   7.8951 14.74536240640115"}}, "geometry": {"type": "Point", "coordinates": [-156.84265077110453, 26.68285707533255]}}, {"type": "Feature", "properties": {"norad_id": 31442, "name": "FENGYUN 1C DEB", "group": "fengyun-1c-debris", "lat": -53.633910698190725, "lon": -120.46991310367949, "alt_km": 830.4770200185148, "timestamp": "2025-12-11T07:02:24.012844+00:00", "meta": {"OBJECT_NAME": "FENGYUN 1C DEB", "OBJECT_ID": "1999-025BUE", "EPOCH": "2025-12-10T11:31:37.831008", "MEAN_MOTION": 14.3392245, "ECCENTRICITY": 0.00792158, "INCLINATION": 98.5305, "RA_OF_ASC_NODE": 70.4894, "ARG_OF_PERICENTER": 19.4196, "MEAN_ANOMALY": 340.9978, "EPHEMERIS_TYPE": 0, "CLASSIFICATION_TYPE": "U", "NORAD_CAT_ID": 31442, "ELEMENT_SET_NO": 999, "REV_AT_EPOCH": 97328, "BSTAR": 0.00052575283, "MEAN_MOTION_DOT": 1.474e-05, "MEAN_MOTION_DDOT": 0}, "tle": {"line1": "1 31442U 99025BUE 25344.48029897  .00001474  00000+0  52575-3 0  9996", "line2": "2 31442  98.5305  70.4894 0079215  19.4196 340.9978 14.33922450973284"}}, "geometry": {"type": "Point", "coordinates": [-120.46991310367949, -53.633910698190725]}}]}